HELIOS 2A               
1 28492U 04049A   22285.99004197  .00002541  00000+0  24732-3 0  9992
2 28492  98.2441 234.5688 0015545  58.4570 301.8161 14.93429705952662
CFESAT                  
1 30777U 07006F   22286.22727506  .00317020  00000+0  16157-2 0  9992
2 30777  35.4134 232.5174 0006818 222.2201 137.8014 15.79512350867546
SPIRALE A               
1 33751U 09008C   22285.61224529  .00000260  00000+0  10196-2 0  9992
2 33751   1.9816 143.1414 5449698 108.0087 316.7001  4.58874165200191
SPIRALE B               
1 33752U 09008D   22285.60282903  .00003973  00000+0  12306-2 0  9991
2 33752   2.2254  52.3840 6848277 277.4105  15.7656  2.83212645128393
SAPPHIRE                
1 39088U 13009C   22286.10136026  .00000176  00000+0  77708-4 0  9996
2 39088  98.4221 118.9031 0010311 289.5011  70.5060 14.34330826504002
